CTC1_L_00541032-01
1 55151U 23012ER  26070.40839120  .00000000  00000+0  00000-0 0  9996
2 55151  99.7000  74.4000 0000000   0.0000 148.8000 13.56072486    13
CTC1_L_00541032-02
1 55152U 26883FM  26070.40839120  .00000000  00000+0  00000-0 0  9996
2 55152  99.7000  74.4000 0000000   0.0000 328.8000 13.56072486    14
CTC1_L_00541033-01
1 55153U 24859QU  26070.40839120  .00000000  00000+0  00000-0 0  9998
2 55153  99.7000  76.8000 0000000   0.0000 153.6000 13.56072486    15
CTC1_L_00541033-02
1 55154U 24667MA  26070.40839120  .00000000  00000+0  00000-0 0  9996
2 55154  99.7000  76.8000 0000000   0.0000 333.6000 13.56072486    16
CTC1_L_00541034-01
1 55155U 22781PB  26070.40839120  .00000000  00000+0  00000-0 0  9992
2 55155  99.7000  79.2000 0000000   0.0000 158.4000 13.56072486    17
CTC1_L_00541034-02
1 55156U 24804PS  26070.40839120  .00000000  00000+0  00000-0 0  9991
2 55156  99.7000  79.2000 0000000   0.0000 338.4000 13.56072486    18
CTC1_L_00541035-01
1 55157U 25771GM  26070.40839120  .00000000  00000+0  00000-0 0  9996
2 55157  99.7000  81.6000 0000000   0.0000 163.2000 13.56072486    10
CTC1_L_00541035-02
1 55158U 26512BD  26070.40839120  .00000000  00000+0  00000-0 0  9991
2 55158  99.7000  81.6000 0000000   0.0000 343.2000 13.56072486    11
CTC1_L_00541036-01
1 55159U 26819GT  26070.40839120  .00000000  00000+0  00000-0 0  9992
2 55159  99.7000  84.0000 0000000   0.0000 168.0000 13.56072486    12
CTC1_L_00541036-02
1 55160U 24256XG  26070.40839120  .00000000  00000+0  00000-0 0  9997
2 55160  99.7000  84.0000 0000000   0.0000 348.0000 13.56072486    14
CTC1_L_00541037-01
1 55161U 26017NB  26070.40839120  .00000000  00000+0  00000-0 0  9995
2 55161  99.7000  86.4000 0000000   0.0000 172.8000 13.56072486    14
CTC1_L_00541037-02
1 55162U 25311OF  26070.40839120  .00000000  00000+0  00000-0 0  9992
2 55162  99.7000  86.4000 0000000   0.0000 352.8000 13.56072486    15
CTC1_L_00541038-01
1 55163U 23255AW  26070.40839120  .00000000  00000+0  00000-0 0  9998
2 55163  99.7000  88.8000 0000000   0.0000 177.6000 13.56072486    15
CTC1_L_00541038-02
1 55164U 24870KT  26070.40839120  .00000000  00000+0  00000-0 0  9993
2 55164  99.7000  88.8000 0000000   0.0000 357.6000 13.56072486    16
CTC1_L_00541039-01
1 55165U 23735NJ  26070.40839120  .00000000  00000+0  00000-0 0  9993
2 55165  99.7000  91.2000 0000000   0.0000 182.4000 13.56072486    19
CTC1_L_00541039-02
1 55166U 26974G   26070.40839120  .00000000  00000+0  00000-0 0  9992
2 55166  99.7000  91.2000 0000000   0.0000   2.4000 13.56072486    11
CTC1_L_00541040-01
1 55167U 22681JE  26070.40839120  .00000000  00000+0  00000-0 0  9994
2 55167  99.7000  93.6000 0000000   0.0000 187.2000 13.56072486    10
CTC1_L_00541040-02
1 55168U 22442MF  26070.40839120  .00000000  00000+0  00000-0 0  9990
2 55168  99.7000  93.6000 0000000   0.0000   7.2000 13.56072486    12
CTC1_L_00541041-01
1 55169U 23305VD  26070.40839120  .00000000  00000+0  00000-0 0  9990
2 55169  99.7000  96.0000 0000000   0.0000 192.0000 13.56072486    13
CTC1_L_00541041-02
1 55170U 23583LE  26070.40839120  .00000000  00000+0  00000-0 0  9990
2 55170  99.7000  96.0000 0000000   0.0000  12.0000 13.56072486    16
CTC1_L_00541042-01
1 55171U 25113UV  26070.40839120  .00000000  00000+0  00000-0 0  9992
2 55171  99.7000  98.4000 0000000   0.0000 196.8000 13.56072486    14
CTC1_L_00541042-02
1 55172U 24998EL  26070.40839120  .00000000  00000+0  00000-0 0  9993
2 55172  99.7000  98.4000 0000000   0.0000  16.8000 13.56072486    16
CTC1_L_00541043-01
1 55173U 24238MW  26070.40839120  .00000000  00000+0  00000-0 0  9991
2 55173  99.7000 100.8000 0000000   0.0000 201.6000 13.56072486    19
CTC1_L_00541043-02
1 55174U 23530VD  26070.40839120  .00000000  00000+0  00000-0 0  9996
2 55174  99.7000 100.8000 0000000   0.0000  21.6000 13.56072486    10
CTC1_L_00541044-01
1 55175U 22690DE  26070.40839120  .00000000  00000+0  00000-0 0  9993
2 55175  99.7000 103.2000 0000000   0.0000 206.4000 13.56072486    11
CTC1_L_00541044-02
1 55176U 26700YO  26070.40839120  .00000000  00000+0  00000-0 0  9990
2 55176  99.7000 103.2000 0000000   0.0000  26.4000 13.56072486    12
CTC1_L_00541045-01
1 55177U 24880HJ  26070.40839120  .00000000  00000+0  00000-0 0  9998
2 55177  99.7000 105.6000 0000000   0.0000 211.2000 13.56072486    13
CTC1_L_00541045-02
1 55178U 25483ZD  26070.40839120  .00000000  00000+0  00000-0 0  9999
2 55178  99.7000 105.6000 0000000   0.0000  31.2000 13.56072486    14
CTC1_L_00541046-01
1 55179U 23400YX  26070.40839120  .00000000  00000+0  00000-0 0  9997
2 55179  99.7000 108.0000 0000000   0.0000 216.0000 13.56072486    15
CTC1_L_00541046-02
1 55180U 24029JB  26070.40839120  .00000000  00000+0  00000-0 0  9997
2 55180  99.7000 108.0000 0000000   0.0000  36.0000 13.56072486    17
CTC1_L_00541047-01
1 55181U 22843RD  26070.40839120  .00000000  00000+0  00000-0 0  9990
2 55181  99.7000 110.4000 0000000   0.0000 220.8000 13.56072486    18
CTC1_L_00541047-02
1 55182U 25760NI  26070.40839120  .00000000  00000+0  00000-0 0  9992
2 55182  99.7000 110.4000 0000000   0.0000  40.8000 13.56072486    19
CTC1_L_00541048-01
1 55183U 24717OC  26070.40839120  .00000000  00000+0  00000-0 0  9994
2 55183  99.7000 112.8000 0000000   0.0000 225.6000 13.56072486    19
CTC1_L_00541048-02
1 55184U 24953QP  26070.40839120  .00000000  00000+0  00000-0 0  9997
2 55184  99.7000 112.8000 0000000   0.0000  45.6000 13.56072486    10
CTC1_L_00541049-01
1 55185U 25617PI  26070.40839120  .00000000  00000+0  00000-0 0  9996
2 55185  99.7000 115.2000 0000000   0.0000 230.4000 13.56072486    12
CTC1_L_00541049-02
1 55186U 22964UW  26070.40839120  .00000000  00000+0  00000-0 0  9999
2 55186  99.7000 115.2000 0000000   0.0000  50.4000 13.56072486    13
CTC1_L_00541050-01
1 55187U 22734NN  26070.40839120  .00000000  00000+0  00000-0 0  9995
2 55187  99.7000 117.6000 0000000   0.0000 235.2000 13.56072486    13
CTC1_L_00541050-02
1 55188U 25544MR  26070.40839120  .00000000  00000+0  00000-0 0  9998
2 55188  99.7000 117.6000 0000000   0.0000  55.2000 13.56072486    14
CTC1_L_00541051-01
1 55189U 26548HJ  26070.40839120  .00000000  00000+0  00000-0 0  9994
2 55189  99.7000 120.0000 0000000   0.0000 240.0000 13.56072486    17
CTC1_L_00541051-02
1 55190U 24194CA  26070.40839120  .00000000  00000+0  00000-0 0  9991
2 55190  99.7000 120.0000 0000000   0.0000  60.0000 13.56072486    19
CTC1_L_00541052-01
1 55191U 25265GJ  26070.40839120  .00000000  00000+0  00000-0 0  9992
2 55191  99.7000 122.4000 0000000   0.0000 244.8000 13.56072486    18
CTC1_L_00541052-02
1 55192U 25757CC  26070.40839120  .00000000  00000+0  00000-0 0  9999
2 55192  99.7000 122.4000 0000000   0.0000  64.8000 13.56072486    19
CTC1_L_00541053-01
1 55193U 24596DH  26070.40839120  .00000000  00000+0  00000-0 0  9990
2 55193  99.7000 124.8000 0000000   0.0000 249.6000 13.56072486    19
CTC1_L_00541053-02
1 55194U 25331XH  26070.40839120  .00000000  00000+0  00000-0 0  9999
2 55194  99.7000 124.8000 0000000   0.0000  69.6000 13.56072486    10
CTC1_L_00541054-01
1 55195U 23715OK  26070.40839120  .00000000  00000+0  00000-0 0  9994
2 55195  99.7000 127.2000 0000000   0.0000 254.4000 13.56072486    12
CTC1_L_00541054-02
1 55196U 22042TQ  26070.40839120  .00000000  00000+0  00000-0 0  9997
2 55196  99.7000 127.2000 0000000   0.0000  74.4000 13.56072486    13
CTC1_L_00541055-01
1 55197U 25869NJ  26070.40839120  .00000000  00000+0  00000-0 0  9998
2 55197  99.7000 129.6000 0000000   0.0000 259.2000 13.56072486    13
CTC1_L_00541055-02
1 55198U 24610BF  26070.40839120  .00000000  00000+0  00000-0 0  9992
2 55198  99.7000 129.6000 0000000   0.0000  79.2000 13.56072486    14
CTC1_L_00541056-01
1 55199U 26811SH  26070.40839120  .00000000  00000+0  00000-0 0  9998
2 55199  99.7000 132.0000 0000000   0.0000 264.0000 13.56072486    17
CTC1_L_00541056-02
1 55200U 26836MQ  26070.40839120  .00000000  00000+0  00000-0 0  9998
2 55200  99.7000 132.0000 0000000   0.0000  84.0000 13.56072486    10
CTC1_L_00541057-01
1 55201U 23691JA  26070.40839120  .00000000  00000+0  00000-0 0  9995
2 55201  99.7000 134.4000 0000000   0.0000 268.8000 13.56072486    19
CTC1_L_00541057-02
1 55202U 24460GE  26070.40839120  .00000000  00000+0  00000-0 0  9991
2 55202  99.7000 134.4000 0000000   0.0000  88.8000 13.56072486    10
CTC1_L_00541058-01
1 55203U 26739AP  26070.40839120  .00000000  00000+0  00000-0 0  9993
2 55203  99.7000 136.8000 0000000   0.0000 273.6000 13.56072486    11
CTC1_L_00541058-02
1 55204U 23225UX  26070.40839120  .00000000  00000+0  00000-0 0  9991
2 55204  99.7000 136.8000 0000000   0.0000  93.6000 13.56072486    12
CTC1_L_00541059-01
1 55205U 22162MB  26070.40839120  .00000000  00000+0  00000-0 0  9991
2 55205  99.7000 139.2000 0000000   0.0000 278.4000 13.56072486    13
CTC1_L_00541059-02
1 55206U 23142KZ  26070.40839120  .00000000  00000+0  00000-0 0  9991
2 55206  99.7000 139.2000 0000000   0.0000  98.4000 13.56072486    14
CTC1_L_00541060-01
1 55207U 25490GD  26070.40839120  .00000000  00000+0  00000-0 0  9990
2 55207  99.7000 141.6000 0000000   0.0000 283.2000 13.56072486    16
CTC1_L_00541060-02
1 55208U 23422EM  26070.40839120  .00000000  00000+0  00000-0 0  9994
2 55208  99.7000 141.6000 0000000   0.0000 103.2000 13.56072486    18
CTC1_L_00541061-01
1 55209U 25772ZU  26070.40839120  .00000000  00000+0  00000-0 0  9995
2 55209  99.7000 144.0000 0000000   0.0000 288.0000 13.56072486    18
CTC1_L_00541061-02
1 55210U 22726JG  26070.40839120  .00000000  00000+0  00000-0 0  9993
2 55210  99.7000 144.0000 0000000   0.0000 108.0000 13.56072486    11
CTC1_L_00541062-01
1 55211U 24142XW  26070.40839120  .00000000  00000+0  00000-0 0  9998
2 55211  99.7000 146.4000 0000000   0.0000 292.8000 13.56072486    10
CTC1_L_00541062-02
1 55212U 24095KC  26070.40839120  .00000000  00000+0  00000-0 0  9996
2 55212  99.7000 146.4000 0000000   0.0000 112.8000 13.56072486    12
